ASTROCAST-0403          
1 55111U 23001DG  26068.82333059  .00013959  00000+0  51317-3 0  9990
2 55111  97.5604 161.3228 0004771 338.0704  22.0330 15.28004949129377
STARLINK-33560          
1 62282U 24237R   26068.43907692  .00027765  00000+0  10138-2 0  9991
2 62282  42.9963 217.7655 0000998 260.4585  99.6154 15.27609265 71065
